LAOSAT 1                
1 41034U 15067A   26179.54456344 -.00000331  00000+0  00000+0 0  9997
2 41034   0.0538 203.0055 0002564 210.7112 187.4701  1.00270682 38977
TELSTAR 12V             
1 41036U 15068A   26179.58749446  .00000000  00000+0  00000+0 0  9994
2 41036   0.0256  16.3912 0002601  77.9887  18.8131  1.00270149 38744
ELEKTRO-L 2             
1 41105U 15074A   26178.94596200 -.00000113  00000+0  00000+0 0  9991
2 41105   6.7214  70.3918 0000680 283.3260 248.3287  1.00271140 38617
COSMOS 2513             
1 41121U 15075A   26179.10727502 -.00000126  00000+0  00000+0 0  9994
2 41121   0.0738 103.6359 0003527 334.0290 317.4019  1.00269249 38654
EXPRESS-AMU1            
1 41191U 15082A   26179.59760284  .00000167  00000+0  00000+0 0  9990
2 41191   0.0167  59.1097 0003020  39.6359  69.1626  1.00273085 38381
GAOFEN-4                
1 41194U 15083A   26179.54005676 -.00000323  00000+0  00000+0 0  9991
2 41194   0.3860  84.0131 0004263 110.8539  21.8883  1.00269753 38641
BELINTERSAT-1           
1 41238U 16001A   26179.60063618  .00000000  00000+0  00000+0 0  9999
2 41238   0.0314  79.4353 0001618   0.3325 104.6139  1.00273624 38356
IRNSS-1E                
1 41241U 16003A   26176.59836588 -.00000319  00000+0  00000+0 0  9998
2 41241  33.2517  59.6282 0019062 179.1130   2.2203  1.00274592 38164
EUTELSAT 9B             
1 41310U 16005A   26179.59222949  .00000073  00000+0  00000+0 0  9996
2 41310   0.0495  65.4408 0001750   4.0398  69.4015  1.00270662 38238
SES-9                   
1 41380U 16013A   26179.32673071 -.00000333  00000+0  00000+0 0  9999
2 41380   0.0145 329.4015 0002635 116.5017  56.4418  1.00269939 37556
EUTELSAT 65 WEST A      
1 41382U 16014A   26179.50619301 -.00000264  00000+0  00000+0 0  9991
2 41382   0.0769 307.3686 0002746 145.2140 301.0518  1.00268492 37630
IRNSS-1F                
1 41384U 16015A   26179.01830841  .00000164  00000+0  00000+0 0  9992
2 41384   5.3754  96.5350 0017441 184.3414  34.2416  1.00273046 37773
BEIDOU-2 IGSO-6         
1 41434U 16021A   26177.11016981 -.00000145  00000+0  00000+0 0  9995
2 41434  60.2385  37.9495 0057558 231.0163 137.2672  1.00258926 37578
IRNSS-1G                
1 41469U 16027A   26179.54482344 -.00000327  00000+0  00000+0 0  9990
2 41469   5.2228  97.2120 0005801   4.6313 140.3313  1.00281899 37291
JCSAT-2B                
1 41471U 16028A   26179.50183498 -.00000154  00000+0  00000+0 0  9996
2 41471   0.0186  17.5160 0001275  79.3177 154.4316  1.00271277 37240
THAICOM 8               
1 41552U 16031A   26179.65028272 -.00000110  00000+0  00000+0 0  9996
2 41552   0.0752  49.8390 0003802  18.3919 161.1053  1.00272148 36832
INTELSAT 31 (IS-31)     
1 41581U 16035A   26179.28649939 -.00000139  00000+0  00000+0 0  9991
2 41581   0.0188 279.2995 0000477 336.3020  28.8715  1.00271913 36796
BEIDOU-2 G7             
1 41586U 16037A   26179.61228407 -.00000343  00000+0  00000+0 0  9995
2 41586   1.7482  69.4178 0006847   2.2917 175.9754  1.00271617  7009
ABS-2A (MONGOLSAT-1)    
1 41588U 16038A   26179.60526406  .00000000  00000+0  00000+0 0  9996
2 41588   0.0274   8.9147 0001770  34.8835 165.5487  1.00268882 36826
EUTELSAT 117 WEST B     
1 41589U 16038B   26179.47197565  .00000000  00000+0  00000+0 0  9992
2 41589   0.0104 156.3211 0000290  94.6955  78.4794  1.00270464 36778
BRISAT                  
1 41591U 16039A   26178.90738249 -.00000184  00000+0  00000+0 0  9997
2 41591   0.0185 327.6675 0002522 127.0969 298.4025  1.00276934 36716
ECHOSTAR 18             
1 41592U 16039B   26179.50688634  .00000000  00000+0  00000+0 0  9993
2 41592   0.0273  23.3871 0001782  75.1620 299.1664  1.00268949 36733
MUOS-5                  
1 41622U 16041A   26179.56964104 -.00000128  00000+0  00000+0 0  9997
2 41622   2.1793 301.8737 0198134 260.5891 174.0919  1.00273338 37205
TIANTONG-1 1            
1 41725U 16048A   26179.61046407 -.00000309  00000+0  00000+0 0  9992
2 41725   3.8704  43.5098 0005941  50.7878 143.5906  1.00270402 36380
JCSAT-16                
1 41729U 16050A   26179.26253023 -.00000239  00000+0  00000+0 0  9996
2 41729   0.0189  20.7747 0001278  87.7373  46.3146  1.00272862 36183
USA 270                 
1 41744U 16052A   26176.62624484 -.00000284  00000+0  00000+0 0  9995
2 41744   4.2178  77.0981 0000668 157.1810  56.2495  0.99500516 28218
USA 271                 
1 41745U 16052B   26176.75914149 -.00000236  00000+0  00000+0 0  9997
2 41745   4.1909  77.1447 0001955 290.7679 281.9940  0.99833204 28007
INTELSAT 36 (IS-36)     
1 41747U 16053A   26179.17622190 -.00000009  00000+0  00000+0 0  9999
2 41747   0.0098   3.8061 0002832   0.5781  43.8410  1.00254007 36060
INSAT-3DR               
1 41752U 16054A   26178.76511551 -.00000065  00000+0  00000+0 0  9990
2 41752   0.1323  86.1351 0010036 186.7215 352.4288  1.00272445 35920
GSAT-18                 
1 41793U 16060A   26179.60509073 -.00000065  00000+0  00000+0 0  9992
2 41793   0.0859  92.9267 0005832 346.2517 129.3297  1.00272287 35649
SKY MUSTER 2 (NBN1B)    
1 41794U 16060B   26179.26270356 -.00000233  00000+0  00000+0 0  9991
2 41794   0.0187 337.5351 0001736 113.0785  65.1233  1.00271738 35638
HIMAWARI-9              
1 41836U 16064A   26179.55449083 -.00000264  00000+0  00000+0 0  9993
2 41836   0.0139  70.3013 0001216  46.5823 140.1353  1.00270461 35320
