OBJECT_NAME,OBJECT_ID,EPOCH,MEAN_MOTION,ECCENTRICITY,INCLINATION,RA_OF_ASC_NODE,ARG_OF_PERICENTER,MEAN_ANOMALY,EPHEMERIS_TYPE,CLASSIFICATION_TYPE,NORAD_CAT_ID,ELEMENT_SET_NO,REV_AT_EPOCH,BSTAR,MEAN_MOTION_DOT,MEAN_MOTION_DDOT
LAOSAT 1,2015-067A,2026-06-28T13:04:10.281216,1.00270682,.00025648,0.0538,203.0055,210.7112,187.4701,0,U,41034,999,3897,0,-.331E-5,0
TELSTAR 12V,2015-068A,2026-06-28T14:05:59.521344,1.00270149,.00026015,0.0256,16.3912,77.9887,18.8131,0,U,41036,999,3874,0,0,0
ELEKTRO-L 2,2015-074A,2026-06-27T22:42:11.116800,1.00271140,.000068,6.7214,70.3918,283.3260,248.3287,0,U,41105,999,3861,0,-.113E-5,0
COSMOS 2513,2015-075A,2026-06-28T02:34:28.561728,1.00269249,.00035273,0.0738,103.6359,334.0290,317.4019,0,U,41121,999,3865,0,-.126E-5,0
EXPRESS-AMU1,2015-082A,2026-06-28T14:20:32.885376,1.00273085,.00030207,0.0167,59.1097,39.6359,69.1626,0,U,41191,999,3838,0,.167E-5,0
GAOFEN-4,2015-083A,2026-06-28T12:57:40.904064,1.00269753,.00042636,0.3860,84.0131,110.8539,21.8883,0,U,41194,999,3864,0,-.323E-5,0
BELINTERSAT-1,2016-001A,2026-06-28T14:24:54.965952,1.00273624,.00016182,0.0314,79.4353,0.3325,104.6139,0,U,41238,999,3835,0,0,0
IRNSS-1E,2016-003A,2026-06-25T14:21:38.812032,1.00274592,.00190622,33.2517,59.6282,179.1130,2.2203,0,U,41241,999,3816,0,-.319E-5,0
EUTELSAT 9B,2016-005A,2026-06-28T14:12:48.627936,1.00270662,.00017501,0.0495,65.4408,4.0398,69.4015,0,U,41310,999,3823,0,.73E-6,0
SES-9,2016-013A,2026-06-28T07:50:29.533344,1.00269939,.00026352,0.0145,329.4015,116.5017,56.4418,0,U,41380,999,3755,0,-.333E-5,0
EUTELSAT 65 WEST A,2016-014A,2026-06-28T12:08:55.076064,1.00268492,.00027468,0.0769,307.3686,145.2140,301.0518,0,U,41382,999,3763,0,-.264E-5,0
IRNSS-1F,2016-015A,2026-06-28T00:26:21.846624,1.00273046,.00174417,5.3754,96.5350,184.3414,34.2416,0,U,41384,999,3777,0,.164E-5,0
BEIDOU-2 IGSO-6,2016-021A,2026-06-26T02:38:38.671584,1.00258926,.0057558,60.2385,37.9495,231.0163,137.2672,0,U,41434,999,3757,0,-.145E-5,0
IRNSS-1G,2016-027A,2026-06-28T13:04:32.745216,1.00281899,.00058017,5.2228,97.2120,4.6313,140.3313,0,U,41469,999,3729,0,-.327E-5,0
JCSAT-2B,2016-028A,2026-06-28T12:02:38.542272,1.00271277,.00012754,0.0186,17.5160,79.3177,154.4316,0,U,41471,999,3724,0,-.154E-5,0
THAICOM 8,2016-031A,2026-06-28T15:36:24.427008,1.00272148,.00038029,0.0752,49.8390,18.3919,161.1053,0,U,41552,999,3683,0,-.11E-5,0
INTELSAT 31 (IS-31),2016-035A,2026-06-28T06:52:33.547296,1.00271913,.00004774,0.0188,279.2995,336.3020,28.8715,0,U,41581,999,3679,0,-.139E-5,0
BEIDOU-2 G7,2016-037A,2026-06-28T14:41:41.343648,1.00271617,.00068478,1.7482,69.4178,2.2917,175.9754,0,U,41586,999,700,0,-.343E-5,0
ABS-2A (MONGOLSAT-1),2016-038A,2026-06-28T14:31:34.814784,1.00268882,.00017704,0.0274,8.9147,34.8835,165.5487,0,U,41588,999,3682,0,0,0
EUTELSAT 117 WEST B,2016-038B,2026-06-28T11:19:38.696160,1.00270464,.00002905,0.0104,156.3211,94.6955,78.4794,0,U,41589,999,3677,0,0,0
BRISAT,2016-039A,2026-06-27T21:46:37.847136,1.00276934,.00025222,0.0185,327.6675,127.0969,298.4025,0,U,41591,999,3671,0,-.184E-5,0
ECHOSTAR 18,2016-039B,2026-06-28T12:09:54.979776,1.00268949,.00017824,0.0273,23.3871,75.1620,299.1664,0,U,41592,999,3673,0,0,0
MUOS-5,2016-041A,2026-06-28T13:40:16.985856,1.00273338,.01981348,2.1793,301.8737,260.5891,174.0919,0,U,41622,999,3720,0,-.128E-5,0
TIANTONG-1 1,2016-048A,2026-06-28T14:39:04.095648,1.00270402,.00059416,3.8704,43.5098,50.7878,143.5906,0,U,41725,999,3638,0,-.309E-5,0
JCSAT-16,2016-050A,2026-06-28T06:18:02.611872,1.00272862,.00012788,0.0189,20.7747,87.7373,46.3146,0,U,41729,999,3618,0,-.239E-5,0
USA 270,2016-052A,2026-06-25T15:01:47.554176,0.99500516,.0000668,4.2178,77.0981,157.1810,56.2495,0,U,41744,999,2821,0,-.284E-5,0
USA 271,2016-052B,2026-06-25T18:13:09.824736,0.99833204,.0001955,4.1909,77.1447,290.7679,281.9940,0,U,41745,999,2800,0,-.236E-5,0
INTELSAT 36 (IS-36),2016-053A,2026-06-28T04:13:45.572160,1.00254007,.00028325,0.0098,3.8061,0.5781,43.8410,0,U,41747,999,3606,0,-.9E-7,0
INSAT-3DR,2016-054A,2026-06-27T18:21:45.980064,1.00272445,.0010036,0.1323,86.1351,186.7215,352.4288,0,U,41752,999,3592,0,-.65E-6,0
GSAT-18,2016-060A,2026-06-28T14:31:19.839072,1.00272287,.00058328,0.0859,92.9267,346.2517,129.3297,0,U,41793,999,3564,0,-.65E-6,0
SKY MUSTER 2 (NBN1B),2016-060B,2026-06-28T06:18:17.587584,1.00271738,.00017369,0.0187,337.5351,113.0785,65.1233,0,U,41794,999,3563,0,-.233E-5,0
HIMAWARI-9,2016-064A,2026-06-28T13:18:28.007712,1.00270461,.0001216,0.0139,70.3013,46.5823,140.1353,0,U,41836,999,3532,0,-.264E-5,0
